SL-14 R/B               
1 16792U 86046B   26055.80774929  .00000417  00000+0  45308-4 0  9998
2 16792  82.4790  92.3572 0021540 270.6482  89.2266 14.85576234124494
SL-14 R/B               
1 16882U 86055B   26055.68592177  .00000476  00000+0  52053-4 0  9997
2 16882  82.5226 138.8946 0019327  19.8065 131.5316 14.85628837117430
AJISAI (EGS)            
1 16908U 86061A   26055.79643906 -.00000098  00000+0 -44756-5 0  9996
2 16908  50.0086 132.9954 0011234 253.7999 221.9885 12.44515466466394
COSMOS 1812             
1 17295U 87003A   26055.86527416  .00655044  22217-3  75938-3 0  9995
2 17295  82.4736 210.3118 0005120 289.2310  70.8418 16.08882202142412
SL-14 R/B               
1 17567U 87024B   26055.50919921  .00000424  00000+0  45533-4 0  9994
2 17567  82.5265 105.1542 0016933 307.4483  52.5192 14.86118381 86172
COSMOS 1833             
1 17589U 87027A   26055.83499648 -.00000098  00000+0 -26534-4 0  9995
2 17589  70.9234 353.0334 0024757 232.1143 127.7739 14.13056988  8503
SL-16 R/B               
1 17590U 87027B   26055.63416082  .00000079  00000+0  63012-4 0  9995
2 17590  71.0033 304.0077 0004104 167.7199 192.4026 14.17167048 13498
SL-14 R/B               
1 17912U 87038B   26055.69947982  .00000429  00000+0  46966-4 0  9997
2 17912  82.5025 309.0442 0018540 203.4424 156.5949 14.85356006 77307
COSMOS 1844             
1 17973U 87041A   26055.45952306  .00000076  00000+0  64254-4 0  9996
2 17973  70.8987  62.0816 0029324  38.4428 321.8775 14.14552493  1710
SL-14 R/B               
1 18153U 87055B   26055.34194275  .00000581  00000+0  64062-4 0  9991
2 18153  82.5021   1.6076 0022080  59.9117 300.4284 14.85610699 67959
COSMOS 1867             
1 18187U 87060A   26055.23742595 -.00000021  00000+0  29627-4 0  9994
2 18187  65.0127 344.3767 0014297 277.7985  82.1476 14.31500683 18019
SL-14 R/B               
1 18749U 88001B   26055.47101707  .00000557  00000+0  61684-4 0  9996
2 18749  82.5129 207.7911 0016608 283.2347  76.7017 14.85509154 40065
