CCSDS_OMM_VERS = 2.0
CREATION_DATE  = 
ORIGINATOR     = 

OBJECT_NAME    = SL-14 R/B
OBJECT_ID      = 1986-046B
CENTER_NAME    = EARTH
REF_FRAME      = TEME
TIME_SYSTEM    = UTC
MEAN_ELEMENT_THEORY = SGP/SGP4

EPOCH          = 2026-02-24T19:23:09.538656
MEAN_MOTION    = 14.85576234
ECCENTRICITY   = .002154
INCLINATION    = 82.4790
RA_OF_ASC_NODE = 92.3572
ARG_OF_PERICENTER = 270.6482
MEAN_ANOMALY   = 89.2266

EPHEMERIS_TYPE = 0
CLASSIFICATION_TYPE = U
NORAD_CAT_ID   = 16792
ELEMENT_SET_NO = 999
REV_AT_EPOCH   = 12449
BSTAR          = .45308E-4
MEAN_MOTION_DOT = .417E-5
MEAN_MOTION_DDOT = 0

CCSDS_OMM_VERS = 2.0
CREATION_DATE  = 
ORIGINATOR     = 

OBJECT_NAME    = SL-14 R/B
OBJECT_ID      = 1986-055B
CENTER_NAME    = EARTH
REF_FRAME      = TEME
TIME_SYSTEM    = UTC
MEAN_ELEMENT_THEORY = SGP/SGP4

EPOCH          = 2026-02-24T16:27:43.640928
MEAN_MOTION    = 14.85628837
ECCENTRICITY   = .0019327
INCLINATION    = 82.5226
RA_OF_ASC_NODE = 138.8946
ARG_OF_PERICENTER = 19.8065
MEAN_ANOMALY   = 131.5316

EPHEMERIS_TYPE = 0
CLASSIFICATION_TYPE = U
NORAD_CAT_ID   = 16882
ELEMENT_SET_NO = 999
REV_AT_EPOCH   = 11743
BSTAR          = .52053E-4
MEAN_MOTION_DOT = .476E-5
MEAN_MOTION_DDOT = 0

CCSDS_OMM_VERS = 2.0
CREATION_DATE  = 
ORIGINATOR     = 

OBJECT_NAME    = AJISAI (EGS)
OBJECT_ID      = 1986-061A
CENTER_NAME    = EARTH
REF_FRAME      = TEME
TIME_SYSTEM    = UTC
MEAN_ELEMENT_THEORY = SGP/SGP4

EPOCH          = 2026-02-24T19:06:52.334784
MEAN_MOTION    = 12.44515466
ECCENTRICITY   = .0011234
INCLINATION    = 50.0086
RA_OF_ASC_NODE = 132.9954
ARG_OF_PERICENTER = 253.7999
MEAN_ANOMALY   = 221.9885

EPHEMERIS_TYPE = 0
CLASSIFICATION_TYPE = U
NORAD_CAT_ID   = 16908
ELEMENT_SET_NO = 999
REV_AT_EPOCH   = 46639
BSTAR          = -.44756E-5
MEAN_MOTION_DOT = -.98E-6
MEAN_MOTION_DDOT = 0

CCSDS_OMM_VERS = 2.0
CREATION_DATE  = 
ORIGINATOR     = 

OBJECT_NAME    = COSMOS 1812
OBJECT_ID      = 1987-003A
CENTER_NAME    = EARTH
REF_FRAME      = TEME
TIME_SYSTEM    = UTC
MEAN_ELEMENT_THEORY = SGP/SGP4

EPOCH          = 2026-02-24T20:45:59.687424
MEAN_MOTION    = 16.08882202
ECCENTRICITY   = .000512
INCLINATION    = 82.4736
RA_OF_ASC_NODE = 210.3118
ARG_OF_PERICENTER = 289.2310
MEAN_ANOMALY   = 70.8418

EPHEMERIS_TYPE = 0
CLASSIFICATION_TYPE = U
NORAD_CAT_ID   = 17295
ELEMENT_SET_NO = 999
REV_AT_EPOCH   = 14241
BSTAR          = .75938E-3
MEAN_MOTION_DOT = .655044E-2
MEAN_MOTION_DDOT = .22217E-3

CCSDS_OMM_VERS = 2.0
CREATION_DATE  = 
ORIGINATOR     = 

OBJECT_NAME    = SL-14 R/B
OBJECT_ID      = 1987-024B
CENTER_NAME    = EARTH
REF_FRAME      = TEME
TIME_SYSTEM    = UTC
MEAN_ELEMENT_THEORY = SGP/SGP4

EPOCH          = 2026-02-24T12:13:14.811744
MEAN_MOTION    = 14.86118381
ECCENTRICITY   = .0016933
INCLINATION    = 82.5265
RA_OF_ASC_NODE = 105.1542
ARG_OF_PERICENTER = 307.4483
MEAN_ANOMALY   = 52.5192

EPHEMERIS_TYPE = 0
CLASSIFICATION_TYPE = U
NORAD_CAT_ID   = 17567
ELEMENT_SET_NO = 999
REV_AT_EPOCH   = 8617
BSTAR          = .45533411E-4
MEAN_MOTION_DOT = .424E-5
MEAN_MOTION_DDOT = 0

CCSDS_OMM_VERS = 2.0
CREATION_DATE  = 
ORIGINATOR     = 

OBJECT_NAME    = COSMOS 1833
OBJECT_ID      = 1987-027A
CENTER_NAME    = EARTH
REF_FRAME      = TEME
TIME_SYSTEM    = UTC
MEAN_ELEMENT_THEORY = SGP/SGP4

EPOCH          = 2026-02-24T20:02:23.695872
MEAN_MOTION    = 14.13056988
ECCENTRICITY   = .0024757
INCLINATION    = 70.9234
RA_OF_ASC_NODE = 353.0334
ARG_OF_PERICENTER = 232.1143
MEAN_ANOMALY   = 127.7739

EPHEMERIS_TYPE = 0
CLASSIFICATION_TYPE = U
NORAD_CAT_ID   = 17589
ELEMENT_SET_NO = 999
REV_AT_EPOCH   = 850
BSTAR          = -.26534E-4
MEAN_MOTION_DOT = -.98E-6
MEAN_MOTION_DDOT = 0

CCSDS_OMM_VERS = 2.0
CREATION_DATE  = 
ORIGINATOR     = 

OBJECT_NAME    = SL-16 R/B
OBJECT_ID      = 1987-027B
CENTER_NAME    = EARTH
REF_FRAME      = TEME
TIME_SYSTEM    = UTC
MEAN_ELEMENT_THEORY = SGP/SGP4

EPOCH          = 2026-02-24T15:13:11.494848
MEAN_MOTION    = 14.17167048
ECCENTRICITY   = .0004104
INCLINATION    = 71.0033
RA_OF_ASC_NODE = 304.0077
ARG_OF_PERICENTER = 167.7199
MEAN_ANOMALY   = 192.4026

EPHEMERIS_TYPE = 0
CLASSIFICATION_TYPE = U
NORAD_CAT_ID   = 17590
ELEMENT_SET_NO = 999
REV_AT_EPOCH   = 1349
BSTAR          = .63012E-4
MEAN_MOTION_DOT = .79E-6
MEAN_MOTION_DDOT = 0

CCSDS_OMM_VERS = 2.0
CREATION_DATE  = 
ORIGINATOR     = 

OBJECT_NAME    = SL-14 R/B
OBJECT_ID      = 1987-038B
CENTER_NAME    = EARTH
REF_FRAME      = TEME
TIME_SYSTEM    = UTC
MEAN_ELEMENT_THEORY = SGP/SGP4

EPOCH          = 2026-02-24T16:47:15.056448
MEAN_MOTION    = 14.85356006
ECCENTRICITY   = .001854
INCLINATION    = 82.5025
RA_OF_ASC_NODE = 309.0442
ARG_OF_PERICENTER = 203.4424
MEAN_ANOMALY   = 156.5949

EPHEMERIS_TYPE = 0
CLASSIFICATION_TYPE = U
NORAD_CAT_ID   = 17912
ELEMENT_SET_NO = 999
REV_AT_EPOCH   = 7730
BSTAR          = .46966E-4
MEAN_MOTION_DOT = .429E-5
MEAN_MOTION_DDOT = 0

CCSDS_OMM_VERS = 2.0
CREATION_DATE  = 
ORIGINATOR     = 

OBJECT_NAME    = COSMOS 1844
OBJECT_ID      = 1987-041A
CENTER_NAME    = EARTH
REF_FRAME      = TEME
TIME_SYSTEM    = UTC
MEAN_ELEMENT_THEORY = SGP/SGP4

EPOCH          = 2026-02-24T11:01:42.792384
MEAN_MOTION    = 14.14552493
ECCENTRICITY   = .00293244
INCLINATION    = 70.8987
RA_OF_ASC_NODE = 62.0816
ARG_OF_PERICENTER = 38.4428
MEAN_ANOMALY   = 321.8775

EPHEMERIS_TYPE = 0
CLASSIFICATION_TYPE = U
NORAD_CAT_ID   = 17973
ELEMENT_SET_NO = 999
REV_AT_EPOCH   = 171
BSTAR          = .64253897E-4
MEAN_MOTION_DOT = .76E-6
MEAN_MOTION_DDOT = 0

CCSDS_OMM_VERS = 2.0
CREATION_DATE  = 
ORIGINATOR     = 

OBJECT_NAME    = SL-14 R/B
OBJECT_ID      = 1987-055B
CENTER_NAME    = EARTH
REF_FRAME      = TEME
TIME_SYSTEM    = UTC
MEAN_ELEMENT_THEORY = SGP/SGP4

EPOCH          = 2026-02-24T08:12:23.853600
MEAN_MOTION    = 14.85610699
ECCENTRICITY   = .00220804
INCLINATION    = 82.5021
RA_OF_ASC_NODE = 1.6076
ARG_OF_PERICENTER = 59.9117
MEAN_ANOMALY   = 300.4284

EPHEMERIS_TYPE = 0
CLASSIFICATION_TYPE = U
NORAD_CAT_ID   = 18153
ELEMENT_SET_NO = 999
REV_AT_EPOCH   = 6795
BSTAR          = .64062447E-4
MEAN_MOTION_DOT = .581E-5
MEAN_MOTION_DDOT = 0

CCSDS_OMM_VERS = 2.0
CREATION_DATE  = 
ORIGINATOR     = 

OBJECT_NAME    = COSMOS 1867
OBJECT_ID      = 1987-060A
CENTER_NAME    = EARTH
REF_FRAME      = TEME
TIME_SYSTEM    = UTC
MEAN_ELEMENT_THEORY = SGP/SGP4

EPOCH          = 2026-02-24T05:41:53.602080
MEAN_MOTION    = 14.31500683
ECCENTRICITY   = .0014297
INCLINATION    = 65.0127
RA_OF_ASC_NODE = 344.3767
ARG_OF_PERICENTER = 277.7985
MEAN_ANOMALY   = 82.1476

EPHEMERIS_TYPE = 0
CLASSIFICATION_TYPE = U
NORAD_CAT_ID   = 18187
ELEMENT_SET_NO = 999
REV_AT_EPOCH   = 1801
BSTAR          = .29627E-4
MEAN_MOTION_DOT = -.21E-6
MEAN_MOTION_DDOT = 0

CCSDS_OMM_VERS = 2.0
CREATION_DATE  = 
ORIGINATOR     = 

OBJECT_NAME    = SL-14 R/B
OBJECT_ID      = 1988-001B
CENTER_NAME    = EARTH
REF_FRAME      = TEME
TIME_SYSTEM    = UTC
MEAN_ELEMENT_THEORY = SGP/SGP4

EPOCH          = 2026-02-24T11:18:15.874848
MEAN_MOTION    = 14.85509154
ECCENTRICITY   = .0016608
INCLINATION    = 82.5129
RA_OF_ASC_NODE = 207.7911
ARG_OF_PERICENTER = 283.2347
MEAN_ANOMALY   = 76.7017

EPHEMERIS_TYPE = 0
CLASSIFICATION_TYPE = U
NORAD_CAT_ID   = 18749
ELEMENT_SET_NO = 999
REV_AT_EPOCH   = 4006
BSTAR          = .6168423E-4
MEAN_MOTION_DOT = .557E-5
MEAN_MOTION_DDOT = 0

